{"type": "FeatureCollection", "features": [ {"type": "Feature", "properties": {"norad_id": 30242, "name": "FENGYUN 1C DEB", "group": "fengyun-1c-debris", "lat": 52.723710318095854, "lon": -133.87406366531968, "alt_km": 830.9828706722337, "timestamp": "2025-12-26T16:33:55.846639+00:00", "meta": {"OBJECT_NAME": "FENGYUN 1C DEB", "OBJECT_ID": "1999-025XB", "EPOCH": "2025-12-26T00:51:58.539744", "MEAN_MOTION": 14.17668535, "ECCENTRICITY": 0.00104537, "INCLINATION": 98.6824, "RA_OF_ASC_NODE": 33.9055, "ARG_OF_PERICENTER": 17.084, "MEAN_ANOMALY": 12.5603, "EPHEMERIS_TYPE": 0, "CLASSIFICATION_TYPE": "U", "NORAD_CAT_ID": 30242, "ELEMENT_SET_NO": 999, "REV_AT_EPOCH": 97615, "BSTAR": 0.00053887024, "MEAN_MOTION_DOT": 1.054e-05, "MEAN_MOTION_DDOT": 0}, "tle": {"line1": "1 30242U 99025XB  25360.03609421  .00001054  00000+0  53887-3 0  9990", "line2": "2 30242  98.6824  33.9055 0010453  17.0840  12.5603 14.17668535976159"}}, "geometry": {"type": "Point", "coordinates": [-133.87406366531968, 52.723710318095854]}}, {"type": "Feature", "properties": {"norad_id": 30243, "name": "FENGYUN 1C DEB", "group": "fengyun-1c-debris", "lat": -21.865661415879067, "lon": 15.224131559735005, "alt_km": 856.5964942924356, "timestamp": "2025-12-26T16:33:55.846648+00:00", "meta": {"OBJECT_NAME": "FENGYUN 1C DEB", "OBJECT_ID": "1999-025XC", "EPOCH": "2025-12-25T23:55:54.358752", "MEAN_MOTION": 14.13040573, "ECCENTRICITY": 0.0013188, "INCLINATION": 98.6926, "RA_OF_ASC_NODE": 11.0314, "ARG_OF_PERICENTER": 84.2591, "MEAN_ANOMALY": 330.2163, "EPHEMERIS_TYPE": 0, "CLASSIFICATION_TYPE": "U", "NORAD_CAT_ID": 30243, "ELEMENT_SET_NO": 999, "REV_AT_EPOCH": 97466, "BSTAR": 0.00036519, "MEAN_MOTION_DOT": 6.39e-06, "MEAN_MOTION_DDOT": 0}, "tle": {"line1": "1 30243U 99025XC  25359.99715693  .00000639  00000+0  36519-3 0  9994", "line2": "2 30243  98.6926  11.0314 0013188  84.2591 330.2163 14.13040573974662"}}, "geometry": {"type": "Point", "coordinates": [15.224131559735005, -21.865661415879067]}}, {"type": "Feature", "properties": {"norad_id": 30244, "name": "FENGYUN 1C DEB", "group": "fengyun-1c-debris", "lat": -80.15492236499857, "lon": -41.187422811790874, "alt_km": 842.9660308075418, "timestamp": "2025-12-26T16:33:55.846657+00:00", "meta": {"OBJECT_NAME": "FENGYUN 1C DEB", "OBJECT_ID": "1999-025XD", "EPOCH": "2025-12-25T15:46:11.310240", "MEAN_MOTION": 14.15034684, "ECCENTRICITY": 0.0009049, "INCLINATION": 99.1432, "RA_OF_ASC_NODE": 249.6256, "ARG_OF_PERICENTER": 276.9651, "MEAN_ANOMALY": 136.5888, "EPHEMERIS_TYPE": 0, "CLASSIFICATION_TYPE": "U", "NORAD_CAT_ID": 30244, "ELEMENT_SET_NO": 999, "REV_AT_EPOCH": 97529, "BSTAR": 0.00038683, "MEAN_MOTION_DOT": 7.03e-06, "MEAN_MOTION_DDOT": 0}, "tle": {"line1": "1 30244U 99025XD  25359.65707535  .00000703  00000+0  38683-3 0  9990", "line2": "2 30244  99.1432 249.6256 0009049 276.9651 136.5888 14.15034684975292"}}, "geometry": {"type": "Point", "coordinates": [-41.187422811790874, -80.15492236499857]}}, {"type": "Feature", "properties": {"norad_id": 30245, "name": "FENGYUN 1C DEB", "group": "fengyun-1c-debris", "lat": 49.429280803812944, "lon": -23.0954417745722, "alt_km": 1097.9365429864774, "timestamp": "2025-12-26T16:33:55.846666+00:00", "meta": {"OBJECT_NAME": "FENGYUN 1C DEB", "OBJECT_ID": "1999-025XE", "EPOCH": "2025-12-26T05:51:58.258656", "MEAN_MOTION": 13.79098522, "ECCENTRICITY": 0.01928566, "INCLINATION": 98.8901, "RA_OF_ASC_NODE": 347.0188, "ARG_OF_PERICENTER": 214.7232, "MEAN_ANOMALY": 144.1208, "EPHEMERIS_TYPE": 0, "CLASSIFICATION_TYPE": "U", "NORAD_CAT_ID": 30245, "ELEMENT_SET_NO": 999, "REV_AT_EPOCH": 94880, "BSTAR": 0.0009261665, "MEAN_MOTION_DOT": 1.047e-05, "MEAN_MOTION_DDOT": 0}, "tle": {"line1": "1 30245U 99025XE  25360.24442429  .00001047  00000+0  92617-3 0  9995", "line2": "2 30245  98.8901 347.0188 0192856 214.7232 144.1208 13.79098522948809"}}, "geometry": {"type": "Point", "coordinates": [-23.0954417745722, 49.429280803812944]}}, {"type": "Feature", "properties": {"norad_id": 30246, "name": "FENGYUN 1C DEB", "group": "fengyun-1c-debris", "lat": -21.483749399200665, "lon": -41.11422971710207, "alt_km": 1323.5614199227384, "timestamp": "2025-12-26T16:33:55.846675+00:00", "meta": {"OBJECT_NAME": "FENGYUN 1C DEB", "OBJECT_ID": "1999-025XF", "EPOCH": "2025-12-25T22:12:45.739296", "MEAN_MOTION": 13.37024308, "ECCENTRICITY": 0.037045, "INCLINATION": 98.6738, "RA_OF_ASC_NODE": 141.677, "ARG_OF_PERICENTER": 66.6309, "MEAN_ANOMALY": 53.2465, "EPHEMERIS_TYPE": 0, "CLASSIFICATION_TYPE": "U", "NORAD_CAT_ID": 30246, "ELEMENT_SET_NO": 999, "REV_AT_EPOCH": 92316, "BSTAR": 0.00028782, "MEAN_MOTION_DOT": 1.9e-06, "MEAN_MOTION_DDOT": 0}, "tle": {"line1": "1 30246U 99025XF  25359.92552939  .00000190  00000+0  28782-3 0  9997", "line2": "2 30246  98.6738 141.6770 0370450  66.6309  53.2465 13.37024308923160"}}, "geometry": {"type": "Point", "coordinates": [-41.11422971710207, -21.483749399200665]}}, {"type": "Feature", "properties": {"norad_id": 30247, "name": "FENGYUN 1C DEB", "group": "fengyun-1c-debris", "lat": -74.71811076983094, "lon": -59.99098678396171, "alt_km": 578.9856544718095, "timestamp": "2025-12-26T16:33:55.846684+00:00", "meta": {"OBJECT_NAME": "FENGYUN 1C DEB", "OBJECT_ID": "1999-025XG", "EPOCH": "2025-12-24T23:50:19.937184", "MEAN_MOTION": 14.59646948, "ECCENTRICITY": 0.01916191, "INCLINATION": 98.2764, "RA_OF_ASC_NODE": 266.1244, "ARG_OF_PERICENTER": 314.0258, "MEAN_ANOMALY": 57.9158, "EPHEMERIS_TYPE": 0, "CLASSIFICATION_TYPE": "U", "NORAD_CAT_ID": 30247, "ELEMENT_SET_NO": 999, "REV_AT_EPOCH": 97461, "BSTAR": 0.0035005142, "MEAN_MOTION_DOT": 0.00021568, "MEAN_MOTION_DDOT": 0}, "tle": {"line1": "1 30247U 99025XG  25358.99328631  .00021568  00000+0  35005-2 0  9991", "line2": "2 30247  98.2764 266.1244 0191619 314.0258  57.9158 14.59646948974617"}}, "geometry": {"type": "Point", "coordinates": [-59.99098678396171, -74.71811076983094]}}, {"type": "Feature", "properties": {"norad_id": 30248, "name": "FENGYUN 1C DEB", "group": "fengyun-1c-debris", "lat": -41.53462479065221, "lon": -165.683907907939, "alt_km": 717.8010115390498, "timestamp": "2025-12-26T16:33:55.846693+00:00", "meta": {"OBJECT_NAME": "FENGYUN 1C DEB", "OBJECT_ID": "1999-025XH", "EPOCH": "2025-12-25T11:08:43.486080", "MEAN_MOTION": 14.59607506, "ECCENTRICITY": 0.0027967, "INCLINATION": 99.1008, "RA_OF_ASC_NODE": 184.8096, "ARG_OF_PERICENTER": 110.7609, "MEAN_ANOMALY": 249.6588, "EPHEMERIS_TYPE": 0, "CLASSIFICATION_TYPE": "U", "NORAD_CAT_ID": 30248, "ELEMENT_SET_NO": 999, "REV_AT_EPOCH": 97614, "BSTAR": 0.0040535, "MEAN_MOTION_DOT": 0.00019388, "MEAN_MOTION_DDOT": 0}, "tle": {"line1": "1 30248U 99025XH  25359.46439220  .00019388  00000+0  40535-2 0  9993", "line2": "2 30248  99.1008 184.8096 0027967 110.7609 249.6588 14.59607506976149"}}, "geometry": {"type": "Point", "coordinates": [-165.683907907939, -41.53462479065221]}}, {"type": "Feature", "properties": {"norad_id": 30249, "name": "FENGYUN 1C DEB", "group": "fengyun-1c-debris", "lat": -51.58235252285986, "lon": 177.64743279558647, "alt_km": 694.0859928444352, "timestamp": "2025-12-26T16:33:55.846702+00:00", "meta": {"OBJECT_NAME": "FENGYUN 1C DEB", "OBJECT_ID": "1999-025XJ", "EPOCH": "2025-12-25T06:47:28.177728", "MEAN_MOTION": 14.58018718, "ECCENTRICITY": 0.0026984, "INCLINATION": 98.9593, "RA_OF_ASC_NODE": 164.659, "ARG_OF_PERICENTER": 2.0594, "MEAN_ANOMALY": 123.3896, "EPHEMERIS_TYPE": 0, "CLASSIFICATION_TYPE": "U", "NORAD_CAT_ID": 30249, "ELEMENT_SET_NO": 999, "REV_AT_EPOCH": 97746, "BSTAR": 0.0035177, "MEAN_MOTION_DOT": 0.00016231, "MEAN_MOTION_DDOT": 0}, "tle": {"line1": "1 30249U 99025XJ  25359.28296502  .00016231  00000+0  35177-2 0  9998", "line2": "2 30249  98.9593 164.6590 0026984   2.0594 123.3896 14.58018718977461"}}, "geometry": {"type": "Point", "coordinates": [177.64743279558647, -51.58235252285986]}}, {"type": "Feature", "properties": {"norad_id": 30250, "name": "FENGYUN 1C DEB", "group": "fengyun-1c-debris", "lat": 80.08608971024057, "lon": -69.77126888155996, "alt_km": 887.7600167094715, "timestamp": "2025-12-26T16:33:55.846711+00:00", "meta": {"OBJECT_NAME": "FENGYUN 1C DEB", "OBJECT_ID": "1999-025XK", "EPOCH": "2025-12-26T05:55:43.423104", "MEAN_MOTION": 14.0163778, "ECCENTRICITY": 0.00684394, "INCLINATION": 98.7548, "RA_OF_ASC_NODE": 351.6481, "ARG_OF_PERICENTER": 185.1209, "MEAN_ANOMALY": 185.9027, "EPHEMERIS_TYPE": 0, "CLASSIFICATION_TYPE": "U", "NORAD_CAT_ID": 30250, "ELEMENT_SET_NO": 999, "REV_AT_EPOCH": 96681, "BSTAR": 0.00021543865, "MEAN_MOTION_DOT": 2.91e-06, "MEAN_MOTION_DDOT": 0}, "tle": {"line1": "1 30250U 99025XK  25360.24703036  .00000291  00000+0  21544-3 0  9996", "line2": "2 30250  98.7548 351.6481 0068439 185.1209 185.9027 14.01637780966816"}}, "geometry": {"type": "Point", "coordinates": [-69.77126888155996, 80.08608971024057]}}, {"type": "Feature", "properties": {"norad_id": 30251, "name": "FENGYUN 1C DEB", "group": "fengyun-1c-debris", "lat": 76.19224650336632, "lon": 59.96619095605186, "alt_km": 823.0731821933095, "timestamp": "2025-12-26T16:33:55.846720+00:00", "meta": {"OBJECT_NAME": "FENGYUN 1C DEB", "OBJECT_ID": "1999-025XL", "EPOCH": "2025-12-26T03:12:42.981120", "MEAN_MOTION": 14.29335898, "ECCENTRICITY": 0.00513616, "INCLINATION": 99.0487, "RA_OF_ASC_NODE": 198.9668, "ARG_OF_PERICENTER": 291.2421, "MEAN_ANOMALY": 187.711, "EPHEMERIS_TYPE": 0, "CLASSIFICATION_TYPE": "U", "NORAD_CAT_ID": 30251, "ELEMENT_SET_NO": 999, "REV_AT_EPOCH": 98333, "BSTAR": 0.00047073333, "MEAN_MOTION_DOT": 1.168e-05, "MEAN_MOTION_DDOT": 0}, "tle": {"line1": "1 30251U 99025XL  25360.13383080  .00001168  00000+0  47073-3 0  9997", "line2": "2 30251  99.0487 198.9668 0051361 291.2421 187.7110 14.29335898983337"}}, "geometry": {"type": "Point", "coordinates": [59.96619095605186, 76.19224650336632]}}]}